[
    {
        "Altitude(m)": 709518.3809862328,
        "Argument of Periapsis(deg)": 0.0022780242373254137,
        "Eccentricity": 0.0,
        "Inclination(deg)": 45.0,
        "Latitude(deg)": -24.11694778879888,
        "Longitude(deg)": 111.31071798427044,
        "Mean Anomaly(deg)": 215.03394332949617,
        "RAAN(deg)": 4.997849611708359,
        "Satellite Name": "Constellation 1 35",
        "Satellite Number": 35,
        "Semi-Major Axis(m)": 7083131.272910544,
        "Time(s)": 38
    },
    {
        "Altitude(m)": 709532.1000136102,
        "Argument of Periapsis(deg)": 0.002337972243570819,
        "Eccentricity": 0.0,
        "Inclination(deg)": 45.0,
        "Latitude(deg)": -24.155520127411148,
        "Longitude(deg)": 111.35794515856101,
        "Mean Anomaly(deg)": 215.09464446974607,
        "RAAN(deg)": 4.99779302254279,
        "Satellite Name": "Constellation 1 35",
        "Satellite Number": 35,
        "Semi-Major Axis(m)": 7083131.272910544,
        "Time(s)": 39
    },
    {
        "Altitude(m)": 709545.8224739542,
        "Argument of Periapsis(deg)": 0.0023979202498162246,
        "Eccentricity": 0.0,
        "Inclination(deg)": 45.0,
        "Latitude(deg)": -24.19407490506214,
        "Longitude(deg)": 111.40520302135373,
        "Mean Anomaly(deg)": 215.155345609996,
        "RAAN(deg)": 4.99773643337722,
        "Satellite Name": "Constellation 1 35",
        "Satellite Number": 35,
        "Semi-Major Axis(m)": 7083131.272910544,
        "Time(s)": 40
    },
    {
        "Altitude(m)": 709559.5483209253,
        "Argument of Periapsis(deg)": 0.00245786825606163,
        "Eccentricity": 0.0,
        "Inclination(deg)": 45.0,
        "Latitude(deg)": -24.232612080419685,
        "Longitude(deg)": 111.45249163262665,
        "Mean Anomaly(deg)": 215.21604675024585,
        "RAAN(deg)": 4.997679844211651,
        "Satellite Name": "Constellation 1 35",
        "Satellite Number": 35,
        "Semi-Major Axis(m)": 7083131.272910544,
        "Time(s)": 41
    },
    {
        "Altitude(m)": 709573.2775081635,
        "Argument of Periapsis(deg)": 0.002517816262307036,
        "Eccentricity": 0.0,
        "Inclination(deg)": 45.0,
        "Latitude(deg)": -24.271131612092066,
        "Longitude(deg)": 111.4998110523687,
        "Mean Anomaly(deg)": 215.27674789049578,
        "RAAN(deg)": 4.997623255046081,
        "Satellite Name": "Constellation 1 35",
        "Satellite Number": 35,
        "Semi-Major Axis(m)": 7083131.272910544,
        "Time(s)": 42
    },
    {
        "Altitude(m)": 709587.0099892787,
        "Argument of Periapsis(deg)": 0.0025777642685524413,
        "Eccentricity": 0.0,
        "Inclination(deg)": 45.0,
        "Latitude(deg)": -24.309633458627683,
        "Longitude(deg)": 111.54716134057914,
        "Mean Anomaly(deg)": 215.33744903074566,
        "RAAN(deg)": 4.997566665880512,
        "Satellite Name": "Constellation 1 35",
        "Satellite Number": 35,
        "Semi-Major Axis(m)": 7083131.272910544,
        "Time(s)": 43
    },
    {
        "Altitude(m)": 709600.7457178505,
        "Argument of Periapsis(deg)": 0.002637712274797847,
        "Eccentricity": 0.0,
        "Inclination(deg)": 45.0,
        "Latitude(deg)": -24.34811757851508,
        "Longitude(deg)": 111.59454238917067,
        "Mean Anomaly(deg)": 215.39815017099556,
        "RAAN(deg)": 4.997510076714942,
        "Satellite Name": "Constellation 1 35",
        "Satellite Number": 35,
        "Semi-Major Axis(m)": 7083131.272910544,
        "Time(s)": 44
    },
    {
        "Altitude(m)": 709614.4846474474,
        "Argument of Periapsis(deg)": 0.0026976602810432526,
        "Eccentricity": 0.0,
        "Inclination(deg)": 45.0,
        "Latitude(deg)": -24.38658393018297,
        "Longitude(deg)": 111.64195459435663,
        "Mean Anomaly(deg)": 215.45885131124547,
        "RAAN(deg)": 4.997453487549373,
        "Satellite Name": "Constellation 1 35",
        "Satellite Number": 35,
        "Semi-Major Axis(m)": 7083131.272910544,
        "Time(s)": 45
    },
    {
        "Altitude(m)": 709628.2267315999,
        "Argument of Periapsis(deg)": 0.0027576082872886585,
        "Eccentricity": 0.0,
        "Inclination(deg)": 45.0,
        "Latitude(deg)": -24.42503247199978,
        "Longitude(deg)": 111.68939784806948,
        "Mean Anomaly(deg)": 215.5195524514954,
        "RAAN(deg)": 4.997396898383803,
        "Satellite Name": "Constellation 1 35",
        "Satellite Number": 35,
        "Semi-Major Axis(m)": 7083131.272910544,
        "Time(s)": 46
    },
    {
        "Altitude(m)": 709641.9719238121,
        "Argument of Periapsis(deg)": 0.0028175562935340644,
        "Eccentricity": 0.0,
        "Inclination(deg)": 45.0,
        "Latitude(deg)": -24.463463162273786,
        "Longitude(deg)": 111.73687221034793,
        "Mean Anomaly(deg)": 215.58025359174525,
        "RAAN(deg)": 4.997340309218234,
        "Satellite Name": "Constellation 1 35",
        "Satellite Number": 35,
        "Semi-Major Axis(m)": 7083131.272910544,
        "Time(s)": 47
    },
    {
        "Altitude(m)": 709655.7201775813,
        "Argument of Periapsis(deg)": 0.00287750429977947,
        "Eccentricity": 0.0,
        "Inclination(deg)": 45.0,
        "Latitude(deg)": -24.501875959252974,
        "Longitude(deg)": 111.78437774123991,
        "Mean Anomaly(deg)": 215.64095473199518,
        "RAAN(deg)": 4.997283720052664,
        "Satellite Name": "Constellation 1 35",
        "Satellite Number": 35,
        "Semi-Major Axis(m)": 7083131.272910544,
        "Time(s)": 48
    },
    {
        "Altitude(m)": 709669.4714463609,
        "Argument of Periapsis(deg)": 0.002937452306024875,
        "Eccentricity": 0.0,
        "Inclination(deg)": 45.0,
        "Latitude(deg)": -24.540270821124953,
        "Longitude(deg)": 111.83191450080253,
        "Mean Anomaly(deg)": 215.70165587224506,
        "RAAN(deg)": 4.997227130887095,
        "Satellite Name": "Constellation 1 35",
        "Satellite Number": 35,
        "Semi-Major Axis(m)": 7083131.272910544,
        "Time(s)": 49
    },
    {
        "Altitude(m)": 709683.2256835888,
        "Argument of Periapsis(deg)": 0.0029974003122702807,
        "Eccentricity": 0.0,
        "Inclination(deg)": 45.0,
        "Latitude(deg)": -24.578647706016756,
        "Longitude(deg)": 111.8794825491013,
        "Mean Anomaly(deg)": 215.76235701249496,
        "RAAN(deg)": 4.997170541721525,
        "Satellite Name": "Constellation 1 35",
        "Satellite Number": 35,
        "Semi-Major Axis(m)": 7083131.272910544,
        "Time(s)": 50
    },
    {
        "Altitude(m)": 709696.982842677,
        "Argument of Periapsis(deg)": 0.0030573483185156866,
        "Eccentricity": 0.0,
        "Inclination(deg)": 45.0,
        "Latitude(deg)": -24.61700657199484,
        "Longitude(deg)": 111.92708194621034,
        "Mean Anomaly(deg)": 215.82305815274486,
        "RAAN(deg)": 4.997113952555956,
        "Satellite Name": "Constellation 1 35",
        "Satellite Number": 35,
        "Semi-Major Axis(m)": 7083131.272910544,
        "Time(s)": 51
    },
    {
        "Altitude(m)": 709710.7428770139,
        "Argument of Periapsis(deg)": 0.003117296324761092,
        "Eccentricity": 0.0,
        "Inclination(deg)": 45.0,
        "Latitude(deg)": -24.655347377064892,
        "Longitude(deg)": 111.97471258411508,
        "Mean Anomaly(deg)": 215.8837592929948,
        "RAAN(deg)": 4.997057363390386,
        "Satellite Name": "Constellation 1 35",
        "Satellite Number": 35,
        "Semi-Major Axis(m)": 7083131.272910544,
        "Time(s)": 52
    },
    {
        "Altitude(m)": 709724.5057399644,
        "Argument of Periapsis(deg)": 0.0031772443310064975,
        "Eccentricity": 0.0,
        "Inclination(deg)": 45.0,
        "Latitude(deg)": -24.693670079171948,
        "Longitude(deg)": 112.02237485909943,
        "Mean Anomaly(deg)": 215.94446043324464,
        "RAAN(deg)": 4.997000774224817,
        "Satellite Name": "Constellation 1 35",
        "Satellite Number": 35,
        "Semi-Major Axis(m)": 7083131.272910544,
        "Time(s)": 53
    },
    {
        "Altitude(m)": 709738.2713848727,
        "Argument of Periapsis(deg)": 0.0032371923372519038,
        "Eccentricity": 0.0,
        "Inclination(deg)": 45.0,
        "Latitude(deg)": -24.73197463619997,
        "Longitude(deg)": 112.07006866316429,
        "Mean Anomaly(deg)": 216.00516157349458,
        "RAAN(deg)": 4.996944185059247,
        "Satellite Name": "Constellation 1 35",
        "Satellite Number": 35,
        "Semi-Major Axis(m)": 7083131.272910544,
        "Time(s)": 54
    },
    {
        "Altitude(m)": 709752.0397650526,
        "Argument of Periapsis(deg)": 0.0032971403434973088,
        "Eccentricity": 0.0,
        "Inclination(deg)": 45.0,
        "Latitude(deg)": -24.770261005971886,
        "Longitude(deg)": 112.11779405641491,
        "Mean Anomaly(deg)": 216.06586271374445,
        "RAAN(deg)": 4.996887595893678,
        "Satellite Name": "Constellation 1 35",
        "Satellite Number": 35,
        "Semi-Major Axis(m)": 7083131.272910544,
        "Time(s)": 55
    },
    {
        "Altitude(m)": 709765.8108338019,
        "Argument of Periapsis(deg)": 0.0033570883497427146,
        "Eccentricity": 0.0,
        "Inclination(deg)": 45.0,
        "Latitude(deg)": -24.80852914624959,
        "Longitude(deg)": 112.16555109896345,
        "Mean Anomaly(deg)": 216.12656385399436,
        "RAAN(deg)": 4.996831006728108,
        "Satellite Name": "Constellation 1 35",
        "Satellite Number": 35,
        "Semi-Major Axis(m)": 7083131.272910544,
        "Time(s)": 56
    }
]